KUIPER-00079            
1 64826U 25151L   25239.25002315 -.01218345  00000+0 -57108-1 0  9996
2 64826  51.8840  85.9733 0006839 304.6975  36.6924 15.22096030  3651
KUIPER-00080            
1 64827U 25151M   25239.25002315 -.00527431  00000+0 -23825-1 0  9994
2 64827  51.8852  85.9837 0002392 314.3235  67.2278 15.22881585  4477
KUIPER-00082            
1 64828U 25151N   25238.84525679  .00039522  00000+0  11041-2 0  9997
2 64828  51.8791  87.0354 0004578 285.4083  74.6398 15.36307779  6384
KUIPER-00083            
1 64829U 25151P   25239.25002315 -.00836461  00000+0 -27727-1 0  9997
2 64829  51.8788  85.2152 0006125 296.5276  72.5545 15.33250144  5553
KUIPER-00084            
1 64830U 25151Q   25239.25002315 -.00021080  00000+0 -12392-2 0  9995
2 64830  51.8887  88.0320 0008520 288.7918 106.8473 15.10786940  4429
KUIPER-00085            
1 64831U 25151R   25238.84144951  .00035435  00000+0  98321-3 0  9997
2 64831  51.8794  87.0151 0005464 287.0667  72.9721 15.36568336  6386
KUIPER-00086            
1 64832U 25151S   25239.25002315 -.00013481  00000+0 -48631-3 0  9999
2 64832  51.8795  85.5079 0008792 297.5598 281.0694 15.27168692  5197
KUIPER-00087            
1 64833U 25151T   25237.80731017  .00028125  00000+0  79213-3 0  9996
2 64833  51.8785  92.0844 0005461 294.5970  65.4447 15.36220666  6226
